IRIDIUM 64 [+]          
1 25287U 98021C   16287.52484943  .00000169  00000-0  53393-4 0  9990
2 25287  86.3957 327.0806 0002138  90.9330 269.2111 14.34222139969645
IRIDIUM 65 [+]          
1 25288U 98021D   16287.53120195  .00000179  00000-0  56767-4 0  9997
2 25288  86.3957 326.9860 0002414  91.9626 268.1847 14.34221934969668
IRIDIUM 66 [+]          
1 25289U 98021E   16287.26721602  .00000030  00000-0  34857-5 0  9991
2 25289  86.3955 327.0018 0002340  94.6059 310.7997 14.34221377969618
IRIDIUM 67 [+]          
1 25290U 98021F   16287.47411108  .00000033  00000-0  48307-5 0  9991
2 25290  86.3958 327.0482 0002245  93.5675 266.5778 14.34221484969663
IRIDIUM 68 [+]          
1 25291U 98021G   16287.48045838  .00000165  00000-0  51970-4 0  9991
2 25291  86.3959 327.1594 0002258  92.0457 268.0997 14.34221398969637
IRIDIUM 69 [-]          
1 25319U 98026A   16287.33493258  .00000186  00000-0  54229-4 0  9997
2 25319  86.4023 349.5845 0003047  54.0112 306.1368 14.38620706967545
IRIDIUM 71 [-]          
1 25320U 98026B   16287.25695811  .00000166  00000-0  47248-4 0  9990
2 25320  86.4000 345.6270 0004244  85.1128 275.0555 14.39035594967956
IRIDIUM 70 [+]          
1 25342U 98032A   16287.46085514  .00000033  00000-0  47565-5 0  9993
2 25342  86.3964 327.3977 0002384  94.4330  33.6216 14.34220318963739
IRIDIUM 72 [+]          
1 25343U 98032B   16287.21406614  .00000170  00000-0  53558-4 0  9995
2 25343  86.3958 327.1289 0002312  93.4142 266.7318 14.34221857963706
IRIDIUM 73 [-]          
1 25344U 98032C   16287.47183423  .00000220  00000-0  52735-4 0  9996
2 25344  86.4397 307.2052 0002494 107.2531 252.8946 14.48976445971829
IRIDIUM 74 [S]          
1 25345U 98032D   16287.20553911  .00000203  00000-0  54711-4 0  9998
2 25345  86.4469 327.4767 0002185  88.7145 335.4354 14.42955582967131
IRIDIUM 75 [+]          
1 25346U 98032E   16287.45541389  .00000033  00000-0  47490-5 0  9990
2 25346  86.3961 327.2716 0002255  93.8810  38.8697 14.34221234964305
IRIDIUM 3 [+]           
1 25431U 98048A   16287.42660416  .00000236  00000-0  77052-4 0  9993
2 25431  86.4003 358.8787 0002409  95.1699 329.4136 14.34217150950244
IRIDIUM 76 [+]          
1 25432U 98048B   16287.37550506  .00000247  00000-0  81223-4 0  9993
2 25432  86.4001 358.6623 0002282  98.6413 324.1408 14.34217538950212
IRIDIUM 82 [+]          
1 25467U 98051A   16287.12328125 -.00000112  00000-0 -46967-4 0  9997
2 25467  86.3913 125.4797 0002008  73.8533 286.2884 14.34218282951200
IRIDIUM 81 [+]          
1 25468U 98051B   16287.53556608  .00000044  00000-0  87269-5 0  9995
2 25468  86.3935 124.9151 0001966  88.6984 271.4437 14.34217691947487
IRIDIUM 80 [+]          
1 25469U 98051C   16287.45541256 -.00000011  00000-0 -11137-4 0  9996
2 25469  86.3943 125.2238 0001795  83.2970 321.4527 14.34217770947476
IRIDIUM 77 [+]          
1 25471U 98051E   16287.53330131 -.00000010  00000-0 -10637-4 0  9999
2 25471  86.3933 124.7836 0002007  85.3570 328.5385 14.34220492952686
IRIDIUM 2 [-]           
1 25527U 98066A   16287.28304413  .00002402  00000-0  12403-3 0  9990
2 25527  85.5346 177.9003 0007047 282.9788  77.0664 15.15765356980464
IRIDIUM 86 [+]          
1 25528U 98066B   16287.48150754 -.00000015  00000-0 -12534-4 0  9996
2 25528  86.3917  92.9621 0002143  87.1592 272.9849 14.34214713944007
IRIDIUM 84 [+]          
1 25530U 98066D   16287.44346802 -.00000006  00000-0 -90763-5 0  9997
2 25530  86.3918  93.1390 0001954  89.1132 271.0288 14.34218326941635
IRIDIUM 83 [+]          
1 25531U 98066E   16287.47515897 -.00000018  00000-0 -13637-4 0  9990
2 25531  86.3923  93.2411 0001903  87.3906 272.7507 14.34214983938992
IRIDIUM 20 [+]          
1 25577U 98074A   16287.32529564  .00000358  00000-0  12090-3 0  9995
2 25577  86.3997 358.6079 0002279  95.2046 264.9410 14.34221912933059
IRIDIUM 11 [+]          
1 25578U 98074B   16287.35227696  .00000015  00000-0 -16311-5 0  9993
2 25578  86.3997 358.8008 0002261  93.1081 340.7198 14.34217079942023
IRIDIUM 14 [+]          
1 25777U 99032A   16287.54872715  .00000166  00000-0  52119-4 0  9999
2 25777  86.3959 327.0665 0002413  92.5791  63.4751 14.34221527919323
IRIDIUM 21 [+]          
1 25778U 99032B   16287.48679528  .00000173  00000-0  54775-4 0  9998
2 25778  86.3957 327.1144 0002192  96.4118 263.7328 14.34222128912758
IRIDIUM 91 [+]          
1 27372U 02005A   16287.46964946  .00000005  00000-0 -51652-5 0  9990
2 27372  86.4013  30.9569 0001995  90.6027 341.2236 14.34219512776266
IRIDIUM 90 [S]          
1 27373U 02005B   16287.45569678  .00000002  00000-0 -53301-5 0  9993
2 27373  86.4433  93.2241 0002111  90.4281 269.7161 14.42955167775771
IRIDIUM 94 [+]          
1 27374U 02005C   16287.43896383  .00000259  00000-0  85466-4 0  9997
2 27374  86.4000 358.8882 0002824 109.7827 313.1544 14.34219327780580
IRIDIUM 95 [+]          
1 27375U 02005D   16287.42399731  .00000233  00000-0  76190-4 0  9998
2 27375  86.4013  30.7575 0002222  98.7456 261.3991 14.34222586775548
IRIDIUM 96 [+]          
1 27376U 02005E   16287.47183886  .00000157  00000-0  49131-4 0  9996
2 27376  86.3988  62.2667 0001641 135.8246 224.3081 14.34215965780756
IRIDIUM 97 [+]          
1 27450U 02031A   16287.44018548  .00000138  00000-0  42236-4 0  9995
2 27450  86.3958  62.0461 0001947  90.8148 269.3271 14.34220770754869
IRIDIUM 98 [+]          
1 27451U 02031B   16287.17537596 -.00000012  00000-0 -11177-4 0  9998
2 27451  86.3936 125.5058 0001846  81.1385  56.8084 14.34220718755894
